QIANFAN-73              
1 63159U 25046A   25343.27246457  .00000146  00000+0  20647-3 0  9997
2 63159  88.9758 320.3816 0016286 128.7996 231.4612 13.50976213 46948
QIANFAN-74              
1 63160U 25046B   25343.25586179  .00000165  00000+0  23763-3 0  9998
2 63160  88.9758 320.2719 0001990  79.9758 280.1618 13.50978643 47004
QIANFAN-75              
1 63161U 25046C   25343.31721194  .00000204  00000+0  29628-3 0  9994
2 63161  88.9760 320.4991 0017321 131.8035 228.4599 13.50977442 46887
QIANFAN-76              
1 63162U 25046D   25343.31381609  .00000082  00000+0  10763-3 0  9992
2 63162  88.9758 320.4803 0014855 131.5402 228.7026 13.50963359 46892
QIANFAN-77              
1 63163U 25046E   25343.24541302  .00000481  00000+0  34042-3 0  9992
2 63163  88.9760 318.5228 0016991  90.8238 269.4886 13.96085444 47967
QIANFAN-78              
1 63164U 25046F   25343.28066692  .00000162  00000+0  23217-3 0  9999
2 63164  88.9758 320.3476 0016174 134.2161 226.0322 13.50976417 46964
QIANFAN-79              
1 63165U 25046G   25343.30933338  .00000175  00000+0  25204-3 0  9995
2 63165  88.9762 320.4521 0015914 132.4498 227.8002 13.50977992 46914
QIANFAN-80              
1 63166U 25046H   25343.25177996  .00000178  00000+0  25645-3 0  9992
2 63166  88.9760 320.1649 0014773 136.0589 224.1740 13.50975522 47067
